#dP2018 10 25  0  0  0.00000000      96 __u+U ITR00 FIT  IAC
## 2024 345600.00000000   900.00000000 58416 0.0000000000000
+   91   C01C02C03C04C05C06C07C08C09C10C11C12C13C14E01E02E03
+        E04E05E07E08E09E11E12E14E18E19E21E24E25E26E27E30G01
+        G02G03G04G05G06G07G08G09G10G11G12G13G14G15G16G17G18
+        G19G20G21G22G23G24G25G26G27G28G29G30G31G32J01J02J03
+        R01R02R03R04R05R07R08R09R10R11R13R14R15R16R17R18R19
+        R20R21R22R23R24R26  0  0  0  0  0  0  0  0  0  0  0
++         0  0  0  0  0  0  0  0  0  0  0  0  0  0  0  0  0
++         0  0  0  0  0  0  0  0  0  0  0  0  0  0  0  0  0
++         0  0  0  0  0  0  0  0  0  0  0  0  0  0  0  0  0
++         0  0  0  0  0  0  0  0  0  0  0  0  0  0  0  0  0
++         0  0  0  0  0  0  0  0  0  0  0  0  0  0  0  0  0
++         0  0  0  0  0  0  0  0  0  0  0  0  0  0  0  0  0
%c M  cc GPS ccc cccc cccc cccc cccc ccccc ccccc ccccc ccccc
%c cc cc ccc ccc cccc cccc cccc cccc ccccc ccccc ccccc ccccc
%f  0.0000000  0.000000000  0.00000000000  0.000000000000000
%f  0.0000000  0.000000000  0.00000000000  0.000000000000000
%i    0    0    0    0      0      0      0      0         0
%i    0    0    0    0      0      0      0      0         0
/*                                                          
/*   RSA / INFORMATION & ANALYSIS CENTER (IAC) OF MCC       
/*   ULTRA-RAPID DETERMINATION                              
/* PCV:IGS14_2022 OL/AL:FES2004  NONE     YN ORB:CoN CLK:CoN
*  2018 10 25 14  0  0.00000000
PC01 -32284.044984  27151.403280    248.637325   -197.131510
PC02   4345.087326  41914.092104   -890.504353    -51.255421
PC03 -14773.902316  39461.722233   -110.173391   -212.591252
PC04 -39664.114264  14398.764341     34.054537     77.832952
PC05  21950.016947  35976.038183  -1005.049998    197.419959
PC06 -21822.863516  35714.956355   3475.149969    413.213886
PC07  -7783.112198  30887.904485  27962.916181   -110.722463
PC08 -20148.857192  18406.354070 -32167.776697      9.731405
PC09  -9668.837186  35931.483699  19706.528267    228.238836
PC10   4549.766263  37840.294660  18596.248765   -183.048934
PC11 -25752.719551   5971.383281   9126.883455    -11.480496
PC12 -15166.998774  -8571.625314  21883.552164    171.395284
PC13  -1317.689242  23407.597033 -35040.963950   -343.416211
PC14 -16049.618130    476.765485 -22770.448885    680.574508
PE01   8318.603712  25608.873308  12312.845565   -463.666196
PE02  -8363.550117 -25608.911479 -12258.599507     32.546257
PE03   2626.799990 -26751.182903 -12382.787507    -92.241117
PE04  12019.996273  13614.845514  23374.420951   -144.972804
PE05  15828.638885 -24297.058173   5933.449410    170.902806
PE07 -19721.520702   7640.443118 -20709.829977    -63.065269
PE08 -12050.900616 -13391.756533 -23484.790091   6476.022100
PE09  19533.679560  -7827.454778  20813.082558   6637.421437
PE11  29419.347558  -3287.592913    319.202533   5700.578060
PE12  21927.490848   9471.269430 -17486.610729   5350.561032
PE14  -2570.348518  23491.191253 -20084.846912   6499.439423
PE18  13038.516574 -20270.033421   9428.606401   5806.239071
PE19  -4126.348468  27261.892508  10763.560577    -11.152996
PE21  -8627.382085  15019.951430  24010.098588   -501.220731
PE24  19980.312876   3699.493084 -21521.136702   6423.477332
PE25   8652.608303 -14978.537804 -24005.046832   2002.932148
PE26 -19618.075722  13757.670540 -17387.933698   5324.510322
PE27 -20195.726957  -4289.346931  21220.045111    603.941662
PE30 -20001.158286 -20810.861247   6566.519432   5404.266133
PG01  20279.546145  13862.498934 -10645.947059   -105.148550
PG02    341.663846 -15921.428365  21853.749372    -40.022529
PG03  13376.086884  19310.667738  12422.269539    153.053042
PG04 -11365.116042  22169.966530  -8601.496016     -3.817212
PG05  -2589.661894 -25732.282151   5429.422213     -0.679770
PG06  16199.246099  -8776.590230  19169.001088    344.231645
PG07  25918.460760   5735.382739  -3518.845795    100.452813
PG08   2217.175699  17026.508622 -20170.591116   -119.841736
PG09  19275.006186   -559.545179  18228.608093    497.851536
PG10 -12715.687470   9974.044480 -21004.716887    171.326770
PG11  16167.474525  11870.348751 -17863.997505   -706.560269
PG12  -9764.328123 -23082.921279   8866.972777    297.153550
PG13   6538.970764 -19336.576513 -17093.836520    -86.206571
PG14 -17988.628513  18837.763629   4984.289153    -96.426354
PG15  -7783.845116 -14710.799245 -20874.566764   -341.969927
PG16  -1101.902877  25289.797681   7127.323431      2.406273
PG17  21689.212690 -14427.204919  -4435.842769    -39.789432
PG18  11978.040520  16196.808856 -17863.429093     72.100493
PG19  18732.710667 -18264.468314   4641.381169   -390.180459
PG20 -16622.771531   -197.457662 -20854.756728    517.790330
PG21 -25591.348014  -1916.187516  -5904.838117   -315.483143
PG22  11287.737341  23514.355907   5339.160700   -556.359437
PG23  13969.067232   8096.865985  21438.710416   -207.861966
PG24 -16933.180019 -15032.953707 -14252.073802    -57.256080
PG25 -15254.462418 -12490.698386  17725.882282   -666.986309
PG26  -6399.604623  20288.226636  15805.689221     19.837577
PG27  -8030.444514  20796.382533 -14315.850988     -9.456621
PG28  13297.194865  -7008.041929 -21282.471398    751.472798
PG29 -18246.319618  -1476.548391  19222.169392    349.841778
PG30  22710.414024  -2441.646711 -13676.970215      5.059377
PG31 -14431.833290   9939.661458  20109.783396     84.305540
PG32 -20733.516293  16085.756553  -3718.597215   -380.928373
PJ01 -18077.502453  31661.397838 -16570.037074 999999.999999
PJ02 -25623.364755  20648.046754  31027.428868      0.371715
PJ03 -34059.118468  24804.133184   5141.704697      0.449142
PR01  -9746.435811  -6544.143969 -22648.388753     33.980147
PR02 -11926.455668  14623.063830 -17104.512449    336.253238
PR03  -6563.144562  24594.532456  -1208.879520    146.950771
PR04   2891.924672  19896.152885  15698.403427    281.266229
PR05  10119.949261   4224.093023  23033.521925     13.947236
PR07   6429.080487 -24691.742497    841.664879    -50.123747
PR08  -2438.296238 -20391.651298 -15088.294482     20.780319
PR09  12329.343599  -2984.014170 -22122.885472     35.256090
PR10  -1447.305958 -14800.243105 -20712.165743     34.205571
PR11 -15299.305667 -19243.360779  -6690.133055    -45.001267
PR13 -12550.465641   2445.966155  22059.878990    -16.077723
PR14   1409.789251  14982.137891  20620.405414     32.329549
PR15  12427.672170  19274.871785  11078.493913    -18.264300
PR16  20052.122897  12243.990583  -9810.278669    104.770019
PR17 -12125.710261  12431.297893 -18695.853119    175.063950
PR18   5931.689011   9194.749816 -23033.162050     26.551685
PR19  20772.706008   1353.577038 -14735.775884    -60.968685
PR20  23958.240196  -8021.299446   3661.538064   -356.807054
PR21  11623.437836 -12368.350451  19027.013209    -10.834782
PR22  -8126.618919  -8353.383726  22677.104403    -64.884300
PR23 -23003.228002   1395.188296  10934.226382    186.552707
PR24 -23359.375071   8963.905167  -4977.959909   -172.992155
PR26  24155.014165  -7875.262582   2093.415908     26.122749
EOF
